{
  "type": "FeatureCollection",
  "features": [
    {
      "type": "Feature",
      "properties": {
        "norad_id": 40118,
        "name": "GAOFEN-2",
        "group": "resource",
        "lat": -46.87022519589594,
        "lon": 63.648630431320264,
        "alt_km": 638.5252415645127,
        "timestamp": "2025-12-21T18:54:58.150468+00:00",
        "meta_object_name": "GAOFEN-2",
        "meta_object_id": "2014-049A",
        "meta_epoch": "2025-12-21T14:15:52.504416",
        "meta_mean_motion": 14.80623205,
        "meta_eccentricity": 0.00087681,
        "meta_inclination": 98.0377,
        "meta_ra_of_asc_node": 54.7785,
        "meta_arg_of_pericenter": 88.4762,
        "meta_mean_anomaly": 271.7455,
        "meta_ephemeris_type": 0,
        "meta_classification_type": "U",
        "meta_norad_cat_id": 40118,
        "meta_element_set_no": 999,
        "meta_rev_at_epoch": 61295,
        "meta_bstar": 0.00011381588,
        "meta_mean_motion_dot": 8.21e-06,
        "meta_mean_motion_ddot": 0,
        "tle_line1": "1 40118U 14049A   25355.59435769  .00000821  00000+0  11382-3 0  9998",
        "tle_line2": "2 40118  98.0377  54.7785 0008768  88.4762 271.7455 14.80623205612955"
      },
      "geometry": {
        "type": "Point",
        "coordinates": [
          63.648630431320264,
          -46.87022519589594
        ]
      }
    },
    {
      "type": "Feature",
      "properties": {
        "norad_id": 40143,
        "name": "YAOGAN-21",
        "group": "resource",
        "lat": -56.89289090877878,
        "lon": -152.4291006327047,
        "alt_km": 505.9744552680886,
        "timestamp": "2025-12-21T18:54:58.150478+00:00",
        "meta_object_name": "YAOGAN-21",
        "meta_object_id": "2014-053A",
        "meta_epoch": "2025-12-21T14:43:28.108992",
        "meta_mean_motion": 15.23757887,
        "meta_eccentricity": 0.00089796,
        "meta_inclination": 97.1739,
        "meta_ra_of_asc_node": 38.5412,
        "meta_arg_of_pericenter": 12.7847,
        "meta_mean_anomaly": 347.3616,
        "meta_ephemeris_type": 0,
        "meta_classification_type": "U",
        "meta_norad_cat_id": 40143,
        "meta_element_set_no": 999,
        "meta_rev_at_epoch": 62789,
        "meta_bstar": 0.00018727559,
        "meta_mean_motion_dot": 4.44e-05,
        "meta_mean_motion_ddot": 0,
        "tle_line1": "1 40143U 14053A   25355.61351978  .00004440  00000+0  18728-3 0  9995",
        "tle_line2": "2 40143  97.1739  38.5412 0008979  12.7847 347.3616 15.23757887627890"
      },
      "geometry": {
        "type": "Point",
        "coordinates": [
          -152.4291006327047,
          -56.89289090877878
        ]
      }
    },
    {
      "type": "Feature",
      "properties": {
        "norad_id": 40275,
        "name": "YAOGAN-22",
        "group": "resource",
        "lat": 37.007927217465394,
        "lon": -32.437800746426305,
        "alt_km": 1198.5726157705722,
        "timestamp": "2025-12-21T18:54:58.150488+00:00",
        "meta_object_name": "YAOGAN-22",
        "meta_object_id": "2014-063A",
        "meta_epoch": "2025-12-21T09:04:09.447168",
        "meta_mean_motion": 13.15522911,
        "meta_eccentricity": 0.00060375,
        "meta_inclination": 100.7428,
        "meta_ra_of_asc_node": 138.9195,
        "meta_arg_of_pericenter": 227.5245,
        "meta_mean_anomaly": 132.5356,
        "meta_ephemeris_type": 0,
        "meta_classification_type": "U",
        "meta_norad_cat_id": 40275,
        "meta_element_set_no": 999,
        "meta_rev_at_epoch": 53643,
        "meta_bstar": 4.2583446e-05,
        "meta_mean_motion_dot": -3.1e-07,
        "meta_mean_motion_ddot": 0,
        "tle_line1": "1 40275U 14063A   25355.37788712 -.00000031  00000+0  42583-4 0  9995",
        "tle_line2": "2 40275 100.7428 138.9195 0006037 227.5245 132.5356 13.15522911536437"
      },
      "geometry": {
        "type": "Point",
        "coordinates": [
          -32.437800746426305,
          37.007927217465394
        ]
      }
    },
    {
      "type": "Feature",
      "properties": {
        "norad_id": 40298,
        "name": "ASNARO",
        "group": "resource",
        "lat": 28.490892242178802,
        "lon": -104.45997627697254,
        "alt_km": 503.31550697002876,
        "timestamp": "2025-12-21T18:54:58.150498+00:00",
        "meta_object_name": "ASNARO",
        "meta_object_id": "2014-070A",
        "meta_epoch": "2025-12-21T15:05:35.176704",
        "meta_mean_motion": 15.19663983,
        "meta_eccentricity": 0.00057022,
        "meta_inclination": 97.3646,
        "meta_ra_of_asc_node": 71.3592,
        "meta_arg_of_pericenter": 97.9983,
        "meta_mean_anomaly": 262.19,
        "meta_ephemeris_type": 0,
        "meta_classification_type": "U",
        "meta_norad_cat_id": 40298,
        "meta_element_set_no": 999,
        "meta_rev_at_epoch": 61704,
        "meta_bstar": 0.00049047371,
        "meta_mean_motion_dot": 0.00010406,
        "meta_mean_motion_ddot": 0,
        "tle_line1": "1 40298U 14070A   25355.62887936  .00010406  00000+0  49047-3 0  9991",
        "tle_line2": "2 40298  97.3646  71.3592 0005702  97.9983 262.1900 15.19663983617045"
      },
      "geometry": {
        "type": "Point",
        "coordinates": [
          -104.45997627697254,
          28.490892242178802
        ]
      }
    },
    {
      "type": "Feature",
      "properties": {
        "norad_id": 40310,
        "name": "YAOGAN-24",
        "group": "resource",
        "lat": 27.139282296627485,
        "lon": -48.871651712655044,
        "alt_km": 632.3561182396497,
        "timestamp": "2025-12-21T18:54:58.150507+00:00",
        "meta_object_name": "YAOGAN-24",
        "meta_object_id": "2014-072A",
        "meta_epoch": "2025-12-21T14:58:31.591200",
        "meta_mean_motion": 14.7619505,
        "meta_eccentricity": 0.00151349,
        "meta_inclination": 98.1227,
        "meta_ra_of_asc_node": 126.765,
        "meta_arg_of_pericenter": 111.3508,
        "meta_mean_anomaly": 248.9318,
        "meta_ephemeris_type": 0,
        "meta_classification_type": "U",
        "meta_norad_cat_id": 40310,
        "meta_element_set_no": 999,
        "meta_rev_at_epoch": 59752,
        "meta_bstar": 0.00015738383,
        "meta_mean_motion_dot": 1.037e-05,
        "meta_mean_motion_ddot": 0,
        "tle_line1": "1 40310U 14072A   25355.62397675  .00001037  00000+0  15738-3 0  9994",
        "tle_line2": "2 40310  98.1227 126.7650 0015134 111.3508 248.9318 14.76195050597520"
      },
      "geometry": {
        "type": "Point",
        "coordinates": [
          -48.871651712655044,
          27.139282296627485
        ]
      }
    },
    {
      "type": "Feature",
      "properties": {
        "norad_id": 40336,
        "name": "CBERS 4",
        "group": "resource",
        "lat": 9.8844303579993,
        "lon": 52.03267538461056,
        "alt_km": 774.9385211641493,
        "timestamp": "2025-12-21T18:54:58.150517+00:00",
        "meta_object_name": "CBERS 4",
        "meta_object_id": "2014-079A",
        "meta_epoch": "2025-12-21T13:51:04.476960",
        "meta_mean_motion": 14.35521353,
        "meta_eccentricity": 0.00018326,
        "meta_inclination": 98.33,
        "meta_ra_of_asc_node": 53.2918,
        "meta_arg_of_pericenter": 102.1362,
        "meta_mean_anomaly": 258.003,
        "meta_ephemeris_type": 0,
        "meta_classification_type": "U",
        "meta_norad_cat_id": 40336,
        "meta_element_set_no": 999,
        "meta_rev_at_epoch": 57847,
        "meta_bstar": 0.00011227694,
        "meta_mean_motion_dot": 2.81e-06,
        "meta_mean_motion_ddot": 0,
        "tle_line1": "1 40336U 14079A   25355.57713515  .00000281  00000+0  11228-3 0  9998",
        "tle_line2": "2 40336  98.3300  53.2918 0001832 102.1362 258.0030 14.35521353578479"
      },
      "geometry": {
        "type": "Point",
        "coordinates": [
          52.03267538461056,
          9.8844303579993
        ]
      }
    },
    {
      "type": "Feature",
      "properties": {
        "norad_id": 40362,
        "name": "YAOGAN-26",
        "group": "resource",
        "lat": 74.2588540584629,
        "lon": -157.7616405413899,
        "alt_km": 440.932382873244,
        "timestamp": "2025-12-21T18:54:58.150527+00:00",
        "meta_object_name": "YAOGAN-26",
        "meta_object_id": "2014-088A",
        "meta_epoch": "2025-12-21T13:47:10.853952",
        "meta_mean_motion": 15.39582352,
        "meta_eccentricity": 0.00050037,
        "meta_inclination": 97.0633,
        "meta_ra_of_asc_node": 355.934,
        "meta_arg_of_pericenter": 3.6462,
        "meta_mean_anomaly": 356.482,
        "meta_ephemeris_type": 0,
        "meta_classification_type": "U",
        "meta_norad_cat_id": 40362,
        "meta_element_set_no": 999,
        "meta_rev_at_epoch": 61030,
        "meta_bstar": 0.00031067138,
        "meta_mean_motion_dot": 0.00012157,
        "meta_mean_motion_ddot": 0,
        "tle_line1": "1 40362U 14088A   25355.57443118  .00012157  00000+0  31067-3 0  9994",
        "tle_line2": "2 40362  97.0633 355.9340 0005003   3.6462 356.4820 15.39582352610304"
      },
      "geometry": {
        "type": "Point",
        "coordinates": [
          -157.7616405413899,
          74.2588540584629
        ]
      }
    }
  ]
}